sat38430
1 38430U 65027EK  20046.23982256  .00000941  00000-0  31927-2 0  9995
2 38430  90.2886 326.8873 0055909 336.4007  23.4550 12.97542360277218
